[{"OBJECT_NAME":"GEOSCAN 5 (RS92S5)","OBJECT_ID":"2025-155R","EPOCH":"2026-03-09T22:01:07.273920","MEAN_MOTION":15.30265233,"ECCENTRICITY":0.00070849,"INCLINATION":97.4462,"RA_OF_ASC_NODE":37.7456,"ARG_OF_PERICENTER":154.5846,"MEAN_ANOMALY":205.5745,"EPHEMERIS_TYPE":0,"CLASSIFICATION_TYPE":"U","NORAD_CAT_ID":64891,"ELEMENT_SET_NO":999,"REV_AT_EPOCH":6562,"BSTAR":0.00068639307,"MEAN_MOTION_DOT":0.00020065,"MEAN_MOTION_DDOT":0},{"OBJECT_NAME":"STARLINK-34204","OBJECT_ID":"2025-244H","EPOCH":"2026-03-09T21:09:45.993312","MEAN_MOTION":15.3017075,"ECCENTRICITY":8.612e-5,"INCLINATION":53.1576,"RA_OF_ASC_NODE":228.6865,"ARG_OF_PERICENTER":108.7651,"MEAN_ANOMALY":251.3444,"EPHEMERIS_TYPE":0,"CLASSIFICATION_TYPE":"U","NORAD_CAT_ID":66213,"ELEMENT_SET_NO":999,"REV_AT_EPOCH":2169,"BSTAR":0.0012331494,"MEAN_MOTION_DOT":0.00036309,"MEAN_MOTION_DDOT":0}]
